[{"OBJECT_NAME":"STARLINK-32820","OBJECT_ID":"2025-034N","EPOCH":"2026-03-09T19:18:33.929568","MEAN_MOTION":15.30201128,"ECCENTRICITY":9.216e-5,"INCLINATION":53.1578,"RA_OF_ASC_NODE":257.6441,"ARG_OF_PERICENTER":81.0026,"MEAN_ANOMALY":279.1079,"EPHEMERIS_TYPE":0,"CLASSIFICATION_TYPE":"U","NORAD_CAT_ID":63041,"ELEMENT_SET_NO":999,"REV_AT_EPOCH":5910,"BSTAR":0.0011012095,"MEAN_MOTION_DOT":0.00032399,"MEAN_MOTION_DDOT":0},{"OBJECT_NAME":"COSMOS 2251 DEB","OBJECT_ID":"1993-036BN","EPOCH":"2026-03-09T17:54:27.582912","MEAN_MOTION":15.31852549,"ECCENTRICITY":0.0043021,"INCLINATION":74.0291,"RA_OF_ASC_NODE":318.0178,"ARG_OF_PERICENTER":323.0874,"MEAN_ANOMALY":36.7369,"EPHEMERIS_TYPE":0,"CLASSIFICATION_TYPE":"U","NORAD_CAT_ID":33821,"ELEMENT_SET_NO":999,"REV_AT_EPOCH":76330,"BSTAR":0.0011195846,"MEAN_MOTION_DOT":0.00035571,"MEAN_MOTION_DDOT":0}]
